[{"OBJECT_NAME":"AC1-002","OBJECT_ID":"2025-276CH","EPOCH":"2026-03-09T16:54:04.093056","MEAN_MOTION":15.17945166,"ECCENTRICITY":0.00020889,"INCLINATION":97.4267,"RA_OF_ASC_NODE":143.9072,"ARG_OF_PERICENTER":20.2082,"MEAN_ANOMALY":339.9235,"EPHEMERIS_TYPE":0,"CLASSIFICATION_TYPE":"U","NORAD_CAT_ID":66745,"ELEMENT_SET_NO":999,"REV_AT_EPOCH":1531,"BSTAR":0.00016926708,"MEAN_MOTION_DOT":3.369e-5,"MEAN_MOTION_DDOT":0},{"OBJECT_NAME":"COSMOS 1275 DEB","OBJECT_ID":"1981-053HD","EPOCH":"2026-03-09T18:17:25.522944","MEAN_MOTION":15.14979108,"ECCENTRICITY":0.00141099,"INCLINATION":82.7961,"RA_OF_ASC_NODE":77.7837,"ARG_OF_PERICENTER":120.1568,"MEAN_ANOMALY":240.1065,"EPHEMERIS_TYPE":0,"CLASSIFICATION_TYPE":"U","NORAD_CAT_ID":13809,"ELEMENT_SET_NO":999,"REV_AT_EPOCH":26070,"BSTAR":0.003137092,"MEAN_MOTION_DOT":0.00059087,"MEAN_MOTION_DDOT":0}]
